ONEWEB-0555             
1 56057U 23043M   25028.81543920  .00000194  00000+0  47421-3 0  9998
2 56057  87.9143 329.2757 0002338  54.3381 305.7968 13.16595864 92593
ONEWEB-0557             
1 56058U 23043N   25028.22171675  .00000072  00000+0  15594-3 0  9999
2 56058  87.9126 329.4195 0001740  47.1387 312.9890 13.16595631 92513
ONEWEB-0558             
1 56059U 23043P   25028.92606960  .00000053  00000+0  96106-4 0  9995
2 56059  87.9335 344.4673 0002129  94.5104 265.6273 13.21828209 91625
ONEWEB-0559             
1 56060U 23043Q   25028.83934520  .00000017  00000+0  86273-5 0  9998
2 56060  87.9336 344.4781 0001599  90.9510 269.1807 13.21827253 91629
ONEWEB-0566             
1 56061U 23043R   25028.15177344  .00000092  00000+0  19218-3 0  9993
2 56061  87.9331 344.6150 0002033  99.0603 261.0761 13.21827579 91513
ONEWEB-0568             
1 56062U 23043S   25028.39113010  .00000007  00000+0 -15740-4 0  9994
2 56062  87.9126 329.3509 0001910  71.2017 288.9321 13.16595241 92555
ONEWEB-0574             
1 56063U 23043T   25027.91837219  .00000050  00000+0  90155-4 0  9996
2 56063  87.9331 344.6519 0001983  79.7011 280.4347 13.21824418 91520
ONEWEB-0575             
1 56064U 23043U   25028.23280155 -.00000083  00000+0 -25166-3 0  9991
2 56064  87.9124 329.3938 0001480  60.9779 299.1500 13.16595257 92520
ONEWEB-0576             
1 56065U 23043V   25028.21379491  .00000005  00000+0 -20311-4 0  9993
2 56065  87.9122 329.3903 0001715  69.4004 290.7311 13.16596867 92511
ONEWEB-0577             
1 56066U 23043W   25028.22012855  .00000035  00000+0  59005-4 0  9997
2 56066  87.9124 329.3893 0001384  54.8333 305.2927 13.16595195 92548
ONEWEB-0578             
1 56067U 23043X   25027.90575238  .00000086  00000+0  17784-3 0  9994
2 56067  87.9331 344.6604 0001864  76.7557 283.3784 13.21824847 91487
ONEWEB-0579             
1 56068U 23043Y   25028.42615068 -.00000041  00000+0 -13139-3 0  9992
2 56068  87.9328 344.5471 0001619  93.6611 266.4709 13.21826961 92470
ONEWEB-0581             
1 56069U 23043Z   25028.75844565  .00000054  00000+0  10742-3 0  9994
2 56069  87.9127 329.3127 0001215  73.5395 286.5870 13.16595670 92583
ONEWEB-0609             
1 56070U 23043AA  25028.01098588 -.00000092  00000+0 -27775-3 0  9999
2 56070  87.9096 359.8066 0001905  85.2950 274.8398 13.15549656 90016
ONEWEB-0613             
1 56071U 23043AB  25028.00623428 -.00000087  00000+0 -26385-3 0  9996
2 56071  87.9099 359.8124 0001764  93.4749 266.6583 13.15551328 90019
ONEWEB-0630             
1 56072U 23043AC  25028.00146693  .00000031  00000+0  47174-4 0  9998
2 56072  87.9096 359.7961 0001870  93.9219 266.2125 13.15547740 90000
ONEWEB-0632             
1 56073U 23043AD  25027.99671927  .00000105  00000+0  24472-3 0  9996
2 56073  87.9094 359.8162 0001485  83.2282 276.9017 13.15550072 90007
ONEWEB-0633             
1 56074U 23043AE  25028.67490584  .00000109  00000+0  25480-3 0  9995
2 56074  87.9094 359.6549 0002095  95.9867 264.1502 13.15550864 90076
ONEWEB-0634             
1 56075U 23043AF  25028.66064954  .00000115  00000+0  27063-3 0  9999
2 56075  87.9100 359.6836 0002184  83.3417 276.7961 13.15547502 90067
ONEWEB-0635             
1 56076U 23043AG  25028.65588605  .00000070  00000+0  15292-3 0  9994
2 56076  87.9070 359.7086 0001415  81.6905 278.4386 13.15549665 90096
ONEWEB-0636             
1 56077U 23043AH  25028.64796531 -.00000088  00000+0 -26760-3 0  9996
2 56077  87.9096 359.7061 0001555  81.5901 278.5405 13.15549203 90077
ONEWEB-0637             
1 56078U 23043AJ  25028.86981216 -.00000062  00000+0 -19819-3 0  9996
2 56078  87.9097 359.6414 0001713  73.4763 286.6556 13.15545479 90126
ONEWEB-0647             
1 56079U 23043AK  25028.86504637 -.00000084  00000+0 -25589-3 0  9990
2 56079  87.9096 359.6554 0001646  87.7428 272.3891 13.15546667 90115
ONEWEB-0651             
1 56080U 23043AL  25028.93634768 -.00000062  00000+0 -19942-3 0  9991
2 56080  87.9100 359.6251 0001572  74.5059 285.6245 13.15548742 91329
ONEWEB-0718             
1 56081U 23043AM  25028.93159008 -.00000289  00000+0 -80178-3 0  9991
2 56081  87.9097 359.6103 0002290  79.6763 280.4626 13.15546621 90135
ONEWEB-0561             
1 56710U 23068A   25028.65753576  .00000075  00000+0  15161-3 0  9997
2 56710  87.9257  14.8611 0001182  88.0146 272.1123 13.20774224 82908
ONEWEB-0668             
1 56711U 23068B   25028.76081685  .00000113  00000+0  26144-3 0  9991
2 56711  87.9118 329.2762 0002322  72.0774 288.0610 13.16597062 85405
ONEWEB-0676             
1 56712U 23068C   25028.20904887  .00000127  00000+0  29984-3 0  9999
2 56712  87.9123 329.4080 0001202  76.4890 283.6375 13.16595893 85252
ONEWEB-0677             
1 56713U 23068D   25028.64650556  .00000025  00000+0  28447-4 0  9990
2 56713  87.9252  14.8339 0001683  77.6714 282.4608 13.20770417 83200
ONEWEB-0678             
1 56714U 23068E   25028.67173634  .00000170  00000+0  41780-3 0  9996
2 56714  87.9102 359.6307 0001732  94.7657 265.3671 13.15549085 82951
ONEWEB-0679             
1 56715U 23068F   25028.78615127 -.00000042  00000+0 -14297-3 0  9990
2 56715  87.9117 329.2902 0001798  58.8943 301.2364 13.16594915 85352
ONEWEB-0680             
1 56716U 23068G   25028.42931602  .00000040  00000+0  66553-4 0  9990
2 56716  87.9312 344.5797 0002378  68.9607 291.1782 13.21823977 84412
ONEWEB-0681             
1 56717U 23068H   25028.81806429  .00000056  00000+0  10336-3 0  9996
2 56717  87.9331 344.5007 0001071  51.2483 308.8747 13.21825830 84455
ONEWEB-0682             
1 56718U 23068J   25028.92604263 -.00000302  00000+0 -83519-3 0  9990
2 56718  87.9097 359.6150 0002140  71.0128 289.1234 13.15548545 83151
ONEWEB-0683             
1 56719U 23068K   25028.64321218 -.00000065  00000+0 -20564-3 0  9993
2 56719  87.9094 359.6427 0002023  76.5357 283.5998 13.15549040 83088
ONEWEB-0684             
1 56720U 23068L   25028.65113613  .00000009  00000+0 -11462-4 0  9999
2 56720  87.9069 359.6943 0002678 116.4273 243.7133 13.15548221 82912
ONEWEB-0686             
1 56721U 23068M   25028.77586276  .00000004  00000+0 -22101-4 0  9999
2 56721  87.9120 329.3290 0002114  79.8441 280.2928 13.16594850 85342
ONEWEB-0694             
1 56722U 23068N   25028.21063189 -.00000003  00000+0 -42472-4 0  9995
2 56722  87.9116 329.3602 0001974  68.3632 291.7709 13.16595936 85321
ONEWEB-0696             
1 56723U 23068P   25028.45625720  .00000071  00000+0  15412-3 0  9993
2 56723  87.9098 359.7317 0001751  93.7326 266.4004 13.15549538 83002
ONEWEB-0703             
1 56724U 23068Q   25028.92209080  .00000049  00000+0  97351-4 0  9991
2 56724  87.9100 359.6587 0001250 124.4935 235.6313 13.15548686 82954
ONEWEB-0721             
1 56725U 23068R   25028.91667824  .00000016  00000+0  00000+0 0  9999
2 56725  86.6723 246.3641 0007348 222.2973 203.6971 13.49347236  5379
ONEWEB-0015             
1 61594U 24188A   25028.91667824 -.00766117  00000+0 -20200+0 0  9990
2 61594  86.7764 127.6745 0004032 202.9036 227.3768 14.51990494 15937
ONEWEB-0687             
1 61595U 24188B   25028.24645978  .00012177  00000+0  14782-2 0  9992
2 61595  86.5788 127.5777 0003060 207.0087 153.0977 14.83461394 17798
ONEWEB-0688             
1 61596U 24188C   25028.24978287  .00005271  00000+0  63871-3 0  9996
2 61596  86.5801 127.5978 0002797 198.7691 161.3430 14.83456873 17793
ONEWEB-0689             
1 61597U 24188D   25028.91667824 -.00873701  00000+0 -26202+0 0  9999
2 61597  86.8168 127.8656 0001173 168.1932  15.8949 14.45749155  5842
ONEWEB-0690             
1 61598U 24188E   25028.91667824 -.00548792  00000+0 -13587+0 0  9991
2 61598  86.8272 127.9013 0005093 198.4737 135.0434 14.54478119  5787
ONEWEB-0691             
1 61599U 24188F   25028.91667824 -.00808345  00000+0 -23300+0 0  9999
2 61599  86.8194 127.9253 0003976 201.2537 144.0759 14.47927863  5648
ONEWEB-0692             
1 61600U 24188G   25028.91667824 -.00799503  00000+0 -23655+0 0  9990
2 61600  86.8259 127.9107 0000865 213.5111 331.4778 14.46629386  5875
ONEWEB-0693             
1 61601U 24188H   25028.25018191  .00005424  00000+0  65738-3 0  9997
2 61601  86.5716 127.5036 0001265 169.6363 190.4886 14.83455217 17791
ONEWEB-0695             
1 61602U 24188J   25028.91667824 -.00803888  00000+0 -23788+0 0  9991
2 61602  86.8187 127.9135 0001449 157.8947  39.3016 14.46639465 16098
ONEWEB-0697             
1 61603U 24188K   25028.91667824 -.00805217  00000+0 -24445+0 0  9991
2 61603  86.8184 127.8989 0000379  69.3360  20.0577 14.45396715  5891
ONEWEB-0698             
1 61604U 24188L   25028.91667824 -.00771667  00000+0 -22801+0 0  9997
2 61604  86.8225 127.9189 0003747 215.5624  49.8962 14.46581726  5842
ONEWEB-0699             
1 61605U 24188M   25028.91667824  .00000013  00000+0  00000+0 0  9993
2 61605  87.9217 136.7442 0001255 291.6168 119.2543 13.24404159 15371
ONEWEB-0700             
1 61606U 24188N   25028.91667824  .00000013  00000+0  00000+0 0  9994
2 61606  87.9241 136.7550 0000711 270.1936   1.4782 13.24842590 15439
ONEWEB-0701             
1 61607U 24188P   25028.91667824  .00000013  00000+0  00000+0 0  9995
2 61607  87.9307 136.7465 0002908 250.4957  53.7544 13.24022515  5557
ONEWEB-0702             
1 61608U 24188Q   25028.91667824 -.00770221  00000+0 -22362+0 0  9998
2 61608  86.8241 127.9386 0003865 201.5082  82.4781 14.47429302 15932
ONEWEB-0704             
1 61609U 24188R   25028.91667824 -.00044273  00000+0 -10542+0 0  9997
2 61609  87.8660 136.7379 0001340  73.2869 357.5208 13.23300516  5580
ONEWEB-0705             
1 61610U 24188S   25028.91667824  .00000013  00000+0  00000+0 0  9999
2 61610  87.9296 136.7521 0001775 310.4520  55.1754 13.24131546 15538
ONEWEB-0706             
1 61611U 24188T   25028.91667824  .00000013  00000+0  00000+0 0  9990
2 61611  87.8964 136.7303 0002178 257.2782 336.4002 13.26579821 15359
